name, street1,city,state,zip,phone
The Transparent Penguin Vendor Company,5182 Silver Trace,Segreganset,NY,13717,(718)374-1643
The Jealous Badger vendor Company,1576 Sunny Towers,Shin Pond,OH,44418,(937)799-5475
The Grey Turtle vendor Company,587 Quiet Nectar Freeway,Scary,MA,1496,(413)392-1538
Yellow Squirrel Vendor,848 Crystal Sky Rise,Diamond Bar,KS,66788,(913)486-7821
The Acute Snail Vendor Company,8464 Little Pond Alley,Ivanhoe,SC,29746,(803)585-3664
Peaceful Fork Vendor,3157 Amber Vista,Atlanta,SC,29635,(864)551-0489
The Foogy Spoon Vendor Company,7794 Stony Leaf Heath,Catawissa,KS,66395,(316)525-4215
The Yellow Baboon Vendor Company,9359 Hidden Fox Row,Leaper,DE,19976,(302)531-7577
Blue Dog Vendor,4650 Easy Oak Court,Rough And Ready,MO,64494,(417)823-8374
Thin Melon Vendor,6486 Middle Willow Inlet,Owl Hoot,KY,42554,(606)963-5972
Freezing Chinchilla Vendor,6819 Noble Butterfly Line,Short Pump,AK,99847,(907)317-1683
Snowy Pen Vendor,908 Honey Round,Geronimo,WY,82618,(307)124-1703
The Beta Ostrich Vendor Company,9404 Dusty Common,North Portal,MD,20630,(240)470-7991
The Complicated Pencil Vendor Company,4159 Jagged Turnabout,Scarce Grease,WY,82960,(307)736-5164
Green Pineapple Vendor,107 Velvet Branch Link,Pinto,AK,99732,(907)091-3830
The Cheerful Fox Vendor Company,3985 Old Grove View,Six Mile,CT,6637,(203)359-5282
Stupid Banana Vendor,6210 Rocky Circuit,Cabinet,AZ,85506,(928)822-3211
The Big Glass Vendor Company,4476 Lost Mountain,Strawberry,KY,42809,(502)504-8032
Happy Elephant Vendor,245 Fallen Circle,Bug,TN,38257,(615)580-1002
The Large Tree Vendor Company,7798 Broad Run,Devils Ladder,AK,99649,(907)542-5598
The Piping Cat Vendor Company,2206 Merry Park,Alligator,SD,57189,(605)132-8101
Transparent Llama Vendor,1276 Sleepy Dale Front,Old Trap,MA,1665,(857)924-0344
The Brown Full Vendor Company,2212 Rustic Rabbit Isle,Chi Chil Tah,IL,60792,(779)687-1843
The Snowy Chinchilla Vendor Company,6813 Thunder Bluff Gardens,Kunuqug,UT,84542,(385)338-3650
Purple Llama vendor,1705 Hazy Quail Ledge,Yampa,NJ,7975,(609)248-6350
